STARLINK-36861          
1 67934U 26037C   26080.16667824 -.01948968  00000+0 -22421-1 0  9991
2 67934  42.9989 128.5559 0001315 281.1958 149.1300 15.64367577  5049
STARLINK-36860          
1 67935U 26037D   26080.16667824 -.01894541  00000+0 -29097-1 0  9995
2 67935  42.9991 128.8889 0001202 268.2698  28.0718 15.56845955  5044
STARLINK-36848          
1 67936U 26037E   26080.16667824 -.01897302  00000+0 -31970-1 0  9997
2 67936  42.9994 129.0070 0001255 268.6602 339.8614 15.54370507  5042
STARLINK-36370          
1 67937U 26037F   26080.16667824 -.01894196  00000+0 -28131-1 0  9991
2 67937  42.9992 128.8323 0001188 261.7210  57.7368 15.57731398  5047
STARLINK-36371          
1 67938U 26037G   26080.16667824 -.01897169  00000+0 -24249-1 0  9991
2 67938  42.9986 128.6231 0001409 273.9729 128.8605 15.61621771  5045
STARLINK-36246          
1 67939U 26037H   26080.16667824 -.01891709  00000+0 -30930-1 0  9990
2 67939  42.9991 128.9383 0001255 265.9132  10.0573 15.55170934  4959
STARLINK-36907          
1 67940U 26037J   26080.16667824 -.01948391  00000+0 -20499-1 0  9991
2 67940  42.9991 128.3907 0001019 273.7866 222.1701 15.66573406  5049
STARLINK-36927          
1 67941U 26037K   26080.16667824 -.01931516  00000+0 -22742-1 0  9996
2 67941  42.9989 128.4698 0001003 278.0207 185.7619 15.63760775  5041
STARLINK-36914          
1 67942U 26037L   26080.16667824 -.01959835  00000+0 -17337-1 0  9995
2 67942  42.9993 128.2929 0000894 268.9469 266.5633 15.70755524  5045
STARLINK-36851          
1 67943U 26037M   26080.16667824 -.01952144  00000+0 -22115-1 0  9992
2 67943  42.9989 128.4647 0001042 272.5859 193.4935 15.64758056  5049
STARLINK-36892          
1 67944U 26037N   26080.16667824 -.01950887  00000+0 -21391-1 0  9990
2 67944  42.9987 128.4150 0001058 274.8749 211.4345 15.65562878  5049
STARLINK-36908          
1 67945U 26037P   26080.16667824 -.01945349  00000+0 -20609-1 0  9999
2 67945  42.9990 128.3642 0000929 272.4874 233.9764 15.66400366  5046
